05293   11.8   0.15 K20CH 329.99684   11.37718  110.85019   13.95561  0.1100906  0.22588899   2.6701726  0 MPO531042  2040  24 1978-2020 0.36 M-v 38h MPCW       0000   (5293) Bentengahama       20200126
05294   12.16  0.15 K20CH  92.99297  317.03256  127.89267   17.78104  0.1303023  0.20306845   2.8666483  0 MPO593178  2290  29 1951-2021 0.40 M-v 3Ek Pan        0000   (5294) Onnetoh            20210112
05295   12.01  0.15 K20CH 104.88244   86.88944   82.23263    6.31392  0.0885300  0.17597941   3.1537564  0 MPO593178  2482  30 1952-2020 0.44 M-v 3Ek Pan        0000   (5295) Masayo             20201009
05296   12.35  0.15 K20CH  79.93529  133.28031  100.16088    2.83859  0.1168580  0.17871482   3.1214928  0 MPO593178  2743  29 1954-2020 0.48 M-v 3Ek Pan        0000   (5296) Friedrich          20201222
05297   13.49  0.15 K20CH 234.25822  311.55992  149.77463    6.53208  0.1239142  0.28951291   2.2630324  0 MPO593178  2718  25 1973-2020 0.45 M-v 3Ek Pan        0000   (5297) Schinkel           20201212
05298   13.28  0.15 K20CH 147.85698  300.34604   69.84449    2.17944  0.2160205  0.19079122   2.9883431  0 MPO593178  2164  27 1966-2020 0.51 M-v 3Ek Pan        0000   (5298) Paraskevopoulos    20201221
05299   12.20  0.15 K20CH 344.36967   81.63396  325.55724    4.88005  0.0620697  0.17950004   3.1123829  0 MPO593178  2899  28 1969-2021 0.44 M-v 3Ek Pan        0000   (5299) Bittesini          20210113
05300   13.98  0.15 K20CH 169.82423  351.03117   10.48932    6.43225  0.1616180  0.28724003   2.2749546  0 MPO593178  2018  24 1974-2021 0.52 M-v 3Ek Pan        0000   (5300) Sats               20210113
05301   12.13  0.15 K20CH 184.09508  131.88406  243.80357   10.04908  0.1029947  0.15999533   3.3604531  0 MPO593179  2146  28 1955-2021 0.44 M-v 3Ek Pan        0000   (5301) Novobranets        20210113
05302   13.99  0.15 K20CH 177.88360   48.02827  337.31913    2.14371  0.0382225  0.27698400   2.3307710  0 MPO593179  2616  26 1951-2020 0.50 M-v 3Ek Pan        0000   (5302) Romanoserra        20201221
05303   12.62  0.15 K20CH  64.34829  145.34845   50.95757    2.76584  0.0161449  0.20225148   2.8743627  0 MPO593179  2558  26 1971-2020 0.43 M-v 3Ek Pan        0000   (5303) Parijskij          20200819
05304   12.68  0.15 K20CH  28.76017  321.83226  114.38372    8.97732  0.0738555  0.19152185   2.9807382  0 MPO593179  2651  25 1976-2021 0.45 M-v 3Ek Pan        0000   (5304) Bazhenov           20210114
05305   13.61  0.15 K20CH 199.73672   15.04222  231.61476    1.78914  0.1535637  0.25865156   2.4396413  0 MPO593179  2409  30 1938-2021 0.47 M-v 3Ek Pan        0000   (5305) Bernievolz         20210113
05306   12.67  0.15 K20CH 314.41905  253.74099   80.15195    3.13040  0.0721716  0.20409709   2.8570083  0 MPO593179  2644  30 1949-2020 0.43 M-v 3Ek Pan        0000   (5306) Fangfen            20200915
05307   13.70  0.15 K20CH 269.50827    9.80469   59.04431    7.05473  0.1198536  0.26247187   2.4159107  0 MPO593179  1865  22 1980-2020 0.46 M-v 3Ek Pan        0000   (5307) Paul-Andre         20201110
05308   13.45  0.15 K20CH 295.40294  100.21567  224.71156   11.86919  0.2063037  0.22740412   2.6582990  0 MPO593179  1923  23 1978-2020 0.46 M-v 3Ek Pan        0000   (5308) Hutchison          20200710
05309   14.41  0.15 K20CH 142.37511  125.25975  202.16767    4.04328  0.2343909  0.29153611   2.2525502  0 MPO593179  2034  28 1975-2021 0.48 M-v 3Ek Pan        0000   (5309) MacPherson         20210110
05310   14.21  0.15 K20CH 241.49311   44.88619  171.66779    6.19025  0.0855601  0.26667679   2.3904476  0 MPO593179  1940  23 1960-2021 0.48 M-v 3Ek Pan        0000   (5310) Papike             20210113
05311   13.78  0.15 K20CH 221.10777  265.41828  227.18883    3.45670  0.0905566  0.18602735   3.0391457  0 MPO593179  1558  25 1981-2021 0.51 M-v 3Ek Pan        0000   (5311) 1981 GD1           20210111
05312   13.61  0.15 K20CH 348.40011  282.05755   96.03628    2.84203  0.2930151  0.17325661   3.1867122  0 MPO593179  1835  25 1953-2021 0.50 M-v 3Ek Pan        0000   (5312) Schott             20210113
05313   13.57  0.15 K20CH 286.01039  138.19442  111.96208    4.52618  0.1215789  0.29877643   2.2160106  0 MPO593179  2354  26 1958-2021 0.49 M-v 3Ek Pan        0000   (5313) Nunes              20210112
05314   12.15  0.15 K20CH  56.03180  251.46507  205.61038    9.62940  0.0858561  0.18970597   2.9997292  0 MPO593179  2381  28 1982-2021 0.44 M-v 3Ek Pan        0000   (5314) Wilkickia          20210113
05315   14.1   0.15 K20CH  69.38913  207.38655  172.48500    6.17824  0.1952165  0.28939702   2.2636365  0 MPO492814  1677  23 1931-2019 0.46 M-v 38h Williams   0000   (5315) Bal'mont           20191001
05316   11.86  0.15 K20CH 218.86990  251.28123  230.02482   14.70555  0.0227789  0.17544712   3.1601320  0 MPO593179  2529  26 1982-2021 0.42 M-v 3Ek Pan        0000   (5316) Filatov            20210114
05317   12.2   0.15 K20CH 249.63143   61.30724  121.97018   13.98556  0.1093919  0.22878785   2.6475697  0 MPO531042  2047  25 1970-2020 0.39 M-v 38h MPCW       0000   (5317) Verolacqua         20200108
05318   13.51  0.15 K20CH 146.54340   54.80138  107.62903    3.30966  0.1328702  0.28423705   2.2909499  0 MPO593179  2152  26 1971-2020 0.46 M-v 3Ek Pan        0000   (5318) Dientzenhofer      20201108
05319   13.60  0.15 K20CH 211.98218   81.60022  200.45483    6.23208  0.1533698  0.29060785   2.2573444  0 MPO593179  2415  30 1951-2021 0.44 M-v 3Ek Pan        0000   (5319) Petrovskaya        20210114
05320   12.58  0.15 K20CH 152.97351  218.27118  126.72727    5.61854  0.1554242  0.17675317   3.1445457  0 MPO593179  2426  25 1979-2021 0.46 M-v 3Ek Pan        0000   (5320) Lisbeth            20210111
05321   12.66  0.15 K20CH 205.91761  139.79899  210.10803   13.62184  0.2205245  0.23770164   2.5809600  0 MPO593179  2525  27 1931-2021 0.43 M-v 3Ek Pan        0000   (5321) Jagras             20210113
05322   12.23  0.15 K20CH 113.78805  195.46280   57.81269    3.28931  0.0086674  0.20378779   2.8598985  0 MPO593179  3185  25 1955-2021 0.40 M-v 3Ek Pan        0000   (5322) 1986 QB1           20210113
05323   13.7   0.15 K20CH  55.70543  347.61927   61.64233    3.31129  0.1971141  0.26524730   2.3990285  0 MPO525983  1660  24 1949-2020 0.44 M-v 38h Williams   0000   (5323) Fogh               20200102
05324   15.5   0.15 K20CH 194.37852  321.08172  352.25783   19.61101  0.6048472  0.19100207   2.9861435  0 MPO525983   215  12 1987-2019 0.58 M-v 38h Williams   1804   (5324) Lyapunov           20191225
05325   12.52  0.15 K20CH 341.73033  120.65624  134.88156   23.49263  0.2187140  0.27130177   2.3632026  0 MPO593179  2502  23 1981-2021 0.39 M-v 3Ek Pan        0007   (5325) Silver             20210110
05326   12.82  0.15 K20CH  26.66041  124.16106  170.60575   15.04795  0.1240720  0.24316143   2.5421798  0 MPO593179  2296  22 1971-2020 0.42 M-v 3Ek Pan        0000   (5326) Vittoriosacco      20201222
05327   13.59  0.15 K20CH 262.89196   82.13170  137.17888    9.75635  0.1612177  0.27488949   2.3425954  0 MPO593179  2414  25 1950-2021 0.43 M-v 3Ek Pan        0000   (5327) 1989 EX1           20210114
05328   13.79  0.15 K20CH 132.82848  162.88072  217.47605    6.91756  0.1412489  0.26365996   2.4086476  0 MPO593179  2085  24 1954-2021 0.50 M-v 3Ek Pan        0000   (5328) Nisiyamakoiti      20210113
05329   13.04  0.15 K20CH 153.06105  256.37110  141.98072   13.41543  0.2698725  0.23416499   2.6068822  0 MPO593179  2433  27 1978-2020 0.45 M-v 3Ek Pan        0000   (5329) Decaro             20201211
05330   12.39  0.15 K20CH  59.18437   20.67817  307.64982   33.75254  0.1566570  0.21456194   2.7633396  0 MPO593179  2527  26 1951-2021 0.66 M-v 3Ek Pan        0000   (5330) Senrikyu           20210112
05331   12.62  0.15 K20CH 316.62407  283.00401  109.71905   12.10116  0.3883550  0.21384564   2.7695069  0 MPO593179  2138  23 1984-2020 0.44 M-v 3Ek Pan        0000   (5331) Erimomisaki        20201017
05332   14.8   0.15 K20CH 266.07438  306.01614  142.78876   25.51386  0.4552005  0.30941664   2.1649121  0 MPO531042  1326  22 1973-2019 0.47 M-v 38h MPCW       1804   (5332) Davidaguilar       20190729
05333   13.21  0.15 K20CH  31.39343  308.79671  208.39161   10.97128  0.1675999  0.27440917   2.3453282  0 MPO593179  2429  26 1954-2021 0.44 M-v 3Ek Pan        0000   (5333) Kanaya             20210113
05334   13.1   0.15 K20CH 203.45817   55.14408  170.44238    7.41591  0.1256991  0.28903577   2.2655222  0 MPO525983  2249  21 1949-2020 0.40 M-v 38h Williams   0000   (5334) Mishima            20200106
05335   13.3   0.15 K20CH 265.69253  191.22509  314.00567   61.58664  0.8659244  0.02417652  11.8451387  2 MPO 87240    47   2 1991-1992 0.65 M-v 38h MPCW       4005   (5335) Damocles           19920822
05336   11.96  0.15 K20CH 121.13089   64.11820  178.46880   11.35598  0.1464294  0.17957978   3.1114615  0 MPO593179  2740  29 1969-2021 0.43 M-v 3Ek Pan        0000   (5336) 1991 JE1           20210112
05337   11.73  0.15 K20CH  58.04601    4.23198  237.68218    6.42206  0.0957992  0.17165651   3.2064848  0 MPO593179  2562  31 1951-2020 0.48 M-v 3Ek Pan        0000   (5337) Aoki               20201201
05338   12.68  0.15 K20CH 340.03022  297.33684   89.59345    3.35730  0.0707904  0.20236759   2.8732632  0 MPO593179  2951  30 1965-2021 0.46 M-v 3Ek Pan        0000   (5338) Michelblanc        20210112
05339   12.49  0.15 K20CH  49.45280  156.37509  336.39212    2.38660  0.0749964  0.17357078   3.1828657  0 MPO593179  2686  29 1954-2021 0.46 M-v 3Ek Pan        0000   (5339) 1992 CD            20210113
05340   12.84  0.15 K20CH 153.07034  323.17936  272.08446    3.48400  0.1346408  0.18211430   3.0825256  0 MPO593179  2612  25 1960-2021 0.48 M-v 3Ek Pan        0000   (5340) Burton             20210113
05341   15.01  0.15 K20CH 267.21777   57.78865  303.07008    1.19948  0.2064831  0.30675944   2.1773960  0 MPO593179  1584  23 1954-2020 0.48 M-v 3Ek Pan        0000   (5341) Purgathofer        20200523
